$$SOE
2459580.500000000, A.D. 2022-Jan-01 00:00:00.0000, -3.343318880744317E+08, 3.894436445602126E+08, -8.319586940956533E+06,
2459587.500000000, A.D. 2022-Jan-08 00:00:00.0000, -3.421755518759715E+08, 3.835825396610736E+08, -8.812266237080649E+06,
2459594.500000000, A.D. 2022-Jan-15 00:00:00.0000, -3.498970222758856E+08, 3.775843905888388E+08, -9.301795987036139E+06,
2459601.500000000, A.D. 2022-Jan-22 00:00:00.0000, -3.574940928518090E+08, 3.714519393980021E+08, -9.788016447691530E+06,
2459608.500000000, A.D. 2022-Jan-29 00:00:00.0000, -3.649646230701745E+08, 3.651879568666638E+08, -1.027077043899383E+07,
2459615.500000000, A.D. 2022-Feb-05 00:00:00.0000, -3.723065403153781E+08, 3.587952401237382E+08, -1.074990322207755E+07,
2459622.500000000, A.D. 2022-Feb-12 00:00:00.0000, -3.795178396997053E+08, 3.522766092405354E+08, -1.122526265943205E+07,
2459629.500000000, A.D. 2022-Feb-19 00:00:00.0000, -3.865965829823299E+08, 3.456349051545785E+08, -1.169669934209515E+07,
2459636.500000000, A.D. 2022-Feb-26 00:00:00.0000, -3.935408979129403E+08, 3.388729882039832E+08, -1.216406662313356E+07,
2459643.500000000, A.D. 2022-Mar-05 00:00:00.0000, -4.003489778437303E+08, 3.319937366572061E+08, -1.262722062291414E+07,
2459650.500000000, A.D. 2022-Mar-12 00:00:00.0000, -4.070190813902941E+08, 3.250000451738304E+08, -1.308602023233780E+07,
2459657.500000000, A.D. 2022-Mar-19 00:00:00.0000, -4.135495320723848E+08, 3.178948232256008E+08, -1.354032711870423E+07,
2459664.500000000, A.D. 2022-Mar-26 00:00:00.0000, -4.199387179138718E+08, 3.106809934726635E+08, -1.399000573714730E+07,
2459671.500000000, A.D. 2022-Apr-02 00:00:00.0000, -4.261850909356424E+08, 3.033614900397843E+08, -1.443492335876949E+07,
2459678.500000000, A.D. 2022-Apr-09 00:00:00.0000, -4.322871662708174E+08, 2.959392566976786E+08, -1.487495014031181E+07,
2459685.500000000, A.D. 2022-Apr-16 00:00:00.0000, -4.382435205465672E+08, 2.884172456034946E+08, -1.530995921489051E+07,
2459692.500000000, A.D. 2022-Apr-23 00:00:00.0000, -4.440527908033032E+08, 2.807984176845716E+08, -1.573982659903488E+07,
2459699.500000000, A.D. 2022-Apr-30 00:00:00.0000, -4.497136758237579E+08, 2.730857424207437E+08, -1.616443092827299E+07,
2459706.500000000, A.D. 2022-May-07 00:00:00.0000, -4.552249368101568E+08, 2.652821950521908E+08, -1.658365346358570E+07,
2459713.500000000, A.D. 2022-May-14 00:00:00.0000, -4.605853960203196E+08, 2.573907542499078E+08, -1.699737824776690E+07,
2459720.500000000, A.D. 2022-May-21 00:00:00.0000, -4.657939353957989E+08, 2.494144010064543E+08, -1.740549216347580E+07,
2459727.500000000, A.D. 2022-May-28 00:00:00.0000, -4.708494956631725E+08, 2.413561177883483E+08, -1.780788492761631E+07,
2459734.500000000, A.D. 2022-Jun-04 00:00:00.0000, -4.757510756328193E+08, 2.332188876374038E+08, -1.820444907310204E+07,
2459741.500000000, A.D. 2022-Jun-11 00:00:00.0000, -4.804977315516498E+08, 2.250056932229563E+08, -1.859507993109970E+07,
2459748.500000000, A.D. 2022-Jun-18 00:00:00.0000, -4.850885764722853E+08, 2.167195158579249E+08, -1.897967561620349E+07,
2459755.500000000, A.D. 2022-Jun-25 00:00:00.0000, -4.895227796104708E+08, 2.083633344452249E+08, -1.935813701992884E+07,
2459762.500000000, A.D. 2022-Jul-02 00:00:00.0000, -4.937995655578406E+08, 1.999401242885035E+08, -1.973036783014866E+07,
2459769.500000000, A.D. 2022-Jul-09 00:00:00.0000, -4.979182129608078E+08, 1.914528559437853E+08, -2.009627459772429E+07,
2459776.500000000, A.D. 2022-Jul-16 00:00:00.0000, -5.018780527217627E+08, 1.829044951941998E+08, -2.045576675667166E+07,
2459783.500000000, A.D. 2022-Jul-23 00:00:00.0000, -5.056784679225518E+08, 1.742980042247635E+08, -2.080875638980795E+07,
2459790.500000000, A.D. 2022-Jul-30 00:00:00.0000, -5.093188953881257E+08, 1.656363406432296E+08, -2.115515802167519E+07,
2459797.500000000, A.D. 2022-Aug-06 00:00:00.0000, -5.127988252920655E+08, 1.569224549951868E+08, -2.149488871563163E+07,
2459804.500000000, A.D. 2022-Aug-13 00:00:00.0000, -5.161177996270809E+08, 1.481592895265861E+08, -2.182786817413635E+07,
2459811.500000000, A.D. 2022-Aug-20 00:00:00.0000, -5.192754111112422E+08, 1.393497776889619E+08, -2.215401873929545E+07,
2459818.500000000, A.D. 2022-Aug-27 00:00:00.0000, -5.222713024635971E+08, 1.304968436603131E+08, -2.247326535927295E+07,
2459825.500000000, A.D. 2022-Sep-03 00:00:00.0000, -5.251051658024240E+08, 1.216034017708472E+08, -2.278553555227518E+07,
2459832.500000000, A.D. 2022-Sep-10 00:00:00.0000, -5.277767420768383E+08, 1.126723558571330E+08, -2.309075937435303E+07,
2459839.500000000, A.D. 2022-Sep-17 00:00:00.0000, -5.302858205029353E+08, 1.037065985425358E+08, -2.338886939385329E+07,
2459846.500000000, A.D. 2022-Sep-24 00:00:00.0000, -5.326322379443223E+08, 9.470901039267018E+07, -2.367980068224566E+07,
2459853.500000000, A.D. 2022-Oct-01 00:00:00.0000, -5.348158779969279E+08, 8.568245892303619E+07, -2.396349084520504E+07,
2459860.500000000, A.D. 2022-Oct-08 00:00:00.0000, -5.368366693703533E+08, 7.662979797996037E+07, -2.423988008870310E+07,
2459867.500000000, A.D. 2022-Oct-15 00:00:00.0000, -5.386945844974114E+08, 6.755386869247386E+07, -2.450891113679096E+07,
2459874.500000000, A.D. 2022-Oct-22 00:00:00.0000, -5.403896405545261E+08, 5.845750030948342E+07, -2.477052893895881E+07,
2459881.500000000, A.D. 2022-Oct-29 00:00:00.0000, -5.419219003971925E+08, 4.934350832798053E+07, -2.502468060864880E+07,
2459888.500000000, A.D. 2022-Nov-05 00:00:00.0000, -5.432914713119271E+08, 4.021469265330614E+07, -2.527131556179488E+07,
2459895.500000000, A.D. 2022-Nov-12 00:00:00.0000, -5.444985035497112E+08, 3.107383705796228E+07, -2.551038557184506E+07,
2459902.500000000, A.D. 2022-Nov-19 00:00:00.0000, -5.455431893612336E+08, 2.192370898402447E+07, -2.574184475359999E+07,
2459909.500000000, A.D. 2022-Nov-26 00:00:00.0000, -5.464257622726649E+08, 1.276705929147501E+07, -2.596564953267125E+07,
2459916.500000000, A.D. 2022-Dec-03 00:00:00.0000, -5.471464964363073E+08, 3.606621940647088E+06, -2.618175861685398E+07,
2459923.500000000, A.D. 2022-Dec-10 00:00:00.0000, -5.477057060106387E+08, -5.554886373032395E+06, -2.639013297208705E+07,
2459930.500000000, A.D. 2022-Dec-17 00:00:00.0000, -5.481037445450399E+08, -1.471476665766810E+07, -2.659073580729856E+07,
2459937.500000000, A.D. 2022-Dec-24 00:00:00.0000, -5.483410042598809E+08, -2.387033820344651E+07, -2.678353258352001E+07,
2459944.500000000, A.D. 2022-Dec-31 00:00:00.0000, -5.484179148643810E+08, -3.301893919429635E+07, -2.696849107123514E+07,
2459951.500000000, A.D. 2023-Jan-07 00:00:00.0000, -5.483349417894393E+08, -4.215792639098787E+07, -2.714558138849752E+07,
2459958.500000000, A.D. 2023-Jan-14 00:00:00.0000, -5.480925858024304E+08, -5.128467338982582E+07, -2.731477579874397E+07,
2459965.500000000, A.D. 2023-Jan-21 00:00:00.0000, -5.476913846494768E+08, -6.039657063060136E+07, -2.747604846850349E+07,
2459972.500000000, A.D. 2023-Jan-28 00:00:00.0000, -5.471319130581251E+08, -6.949102734960523E+07, -2.762937553743723E+07,
2459979.500000000, A.D. 2023-Feb-04 00:00:00.0000, -5.464147813085799E+08, -7.856547244999947E+07, -2.777473523395288E+07,
2459986.500000000, A.D. 2023-Feb-11 00:00:00.0000, -5.455406341680456E+08, -8.761735448388335E+07, -2.791210788736708E+07,
2459993.500000000, A.D. 2023-Feb-18 00:00:00.0000, -5.445101502515839E+08, -9.664414157017082E+07, -2.804147589805379E+07,
2460000.500000000, A.D. 2023-Feb-25 00:00:00.0000, -5.433240415471588E+08, -1.056433214105893E+08, -2.816282370286882E+07,
2460007.500000000, A.D. 2023-Mar-04 00:00:00.0000, -5.419830530028843E+08, -1.146124013851906E+08, -2.827613774357291E+07,
2460014.500000000, A.D. 2023-Mar-11 00:00:00.0000, -5.404879621477835E+08, -1.235489087270007E+08, -2.838140644065603E+07,
2460021.500000000, A.D. 2023-Mar-18 00:00:00.0000, -5.388395786987848E+08, -1.324503908254210E+08, -2.847862018071238E+07,
2460028.500000000, A.D. 2023-Mar-25 00:00:00.0000, -5.370387439503360E+08, -1.413144157057250E+08, -2.856777133963883E+07,
2460035.500000000, A.D. 2023-Apr-01 00:00:00.0000, -5.350863295216701E+08, -1.501385722913718E+08, -2.864885434819540E+07,
2460042.500000000, A.D. 2023-Apr-08 00:00:00.0000, -5.329832360764280E+08, -1.589204692244118E+08, -2.872186564312375E+07,
2460049.500000000, A.D. 2023-Apr-15 00:00:00.0000, -5.307303943511152E+08, -1.676577333508689E+08, -2.878680337970542E+07,
2460056.500000000, A.D. 2023-Apr-22 00:00:00.0000, -5.283287666836262E+08, -1.763480109240482E+08, -2.884366732113291E+07,
2460063.500000000, A.D. 2023-Apr-29 00:00:00.0000, -5.257793463073650E+08, -1.849889692732650E+08, -2.889245897145873E+07,
2460070.500000000, A.D. 2023-May-06 00:00:00.0000, -5.230831561708600E+08, -1.935782971569138E+08, -2.893318164505655E+07,
2460077.500000000, A.D. 2023-May-13 00:00:00.0000, -5.202412482592869E+08, -2.021137046939251E+08, -2.896584045611246E+07,
2460084.500000000, A.D. 2023-May-20 00:00:00.0000, -5.172547031839707E+08, -2.105929233652941E+08, -2.899044229001601E+07,
2460091.500000000, A.D. 2023-May-27 00:00:00.0000, -5.141246298467318E+08, -2.190137061152933E+08, -2.900699577708110E+07,
2460098.500000000, A.D. 2023-Jun-03 00:00:00.0000, -5.108521651214048E+08, -2.273738275262268E+08, -2.901551127197190E+07,
2460105.500000000, A.D. 2023-Jun-10 00:00:00.0000, -5.074384735281430E+08, -2.356710840804064E+08, -2.901600084231143E+07,
2460112.500000000, A.D. 2023-Jun-17 00:00:00.0000, -5.038847468106920E+08, -2.439032945697611E+08, -2.900847827973911E+07,
2460119.500000000, A.D. 2023-Jun-24 00:00:00.0000, -5.001922030961247E+08, -2.520683005981686E+08, -2.899295915846595E+07,
2460126.500000000, A.D. 2023-Jul-01 00:00:00.0000, -4.963620853837712E+08, -2.601639663491978E+08, -2.896946089714257E+07,
2460133.500000000, A.D. 2023-Jul-08 00:00:00.0000, -4.923956610373512E+08, -2.681881767978764E+08, -2.893800260357402E+07,
2460140.500000000, A.D. 2023-Jul-15 00:00:00.0000, -4.882942235573794E+08, -2.761388371970698E+08, -2.889860481669107E+07,
$$EOE